[
    {
        "CCSDS_OMM_VERS": "3.0",
        "COMMENT": "GENERATED VIA SPACE-TRACK.ORG API",
        "CREATION_DATE": "2025-03-01T17:52:32",
        "ORIGINATOR": "18 SPCS",
        "OBJECT_NAME": "BEIDOU 13",
        "OBJECT_ID": "2012-018B",
        "CENTER_NAME": "EARTH",
        "REF_FRAME": "TEME",
        "TIME_SYSTEM": "UTC",
        "MEAN_ELEMENT_THEORY": "SGP4",
        "EPOCH": "2025-03-01T01:31:27.007392",
        "MEAN_MOTION": "1.86232003",
        "ECCENTRICITY": "0.00133540",
        "INCLINATION": "56.0543",
        "RA_OF_ASC_NODE": "320.0231",
        "ARG_OF_PERICENTER": "280.0280",
        "MEAN_ANOMALY": "79.8792",
        "EPHEMERIS_TYPE": "0",
        "CLASSIFICATION_TYPE": "U",
        "NORAD_CAT_ID": "38251",
        "ELEMENT_SET_NO": "999",
        "REV_AT_EPOCH": "8713",
        "BSTAR": "0.00000000000000",
        "MEAN_MOTION_DOT": "-0.00000050",
        "MEAN_MOTION_DDOT": "0.0000000000000",
        "SEMIMAJOR_AXIS": "27906.088",
        "PERIOD": "773.229",
        "APOAPSIS": "21565.219",
        "PERIAPSIS": "21490.688",
        "OBJECT_TYPE": "PAYLOAD",
        "RCS_SIZE": "LARGE",
        "COUNTRY_CODE": "PRC",
        "LAUNCH_DATE": "2012-04-29",
        "SITE": "XSC",
        "DECAY_DATE": null,
        "FILE": "4656182",
        "GP_ID": "282000469",
        "TLE_LINE0": "0 BEIDOU 13",
        "TLE_LINE1": "1 38251U 12018B   25060.06350703 -.00000050  00000-0  00000-0 0  9994",
        "TLE_LINE2": "2 38251  56.0543 320.0231 0013354 280.0280  79.8792  1.86232003 87137"
    }
]